{"type":"FeatureCollection","features":[{"type":"Feature","geometry":{"type":"Polygon","coordinates":[[[72.97042847,20.21232986],[72.97437286,20.21497154],[72.97543335,20.21920013],[72.9744873,20.22583961],[72.96962738,20.23394012],[72.96534729,20.23718071],[72.95778656,20.24115181],[72.95146942,20.24357033],[72.94367218,20.24488068],[72.9408493,20.24682045],[72.92375183,20.26819992],[72.92230988,20.27440071],[72.92459106,20.27865982],[72.930336,20.28397942],[72.93811035,20.28800964],[72.94142151,20.29212761],[72.94597626,20.29343033],[72.95078278,20.2920208],[72.95749664,20.28770065],[72.96977997,20.27474022],[72.9744873,20.27178001],[72.98005676,20.27075005],[72.98409271,20.27168083],[72.98779297,20.27466965],[72.98947144,20.27753067],[72.99046326,20.29208946],[73.00357056,20.29314041],[73.01048279,20.29236984],[73.01728821,20.29053116],[73.02049255,20.29090118],[73.02179718,20.2927475],[73.02217102,20.29706955],[73.02056885,20.30207825],[73.02053833,20.30751991],[73.01760101,20.31549263],[73.01983643,20.31739807],[73.02226257,20.31585121],[73.02469635,20.31279945],[73.02696228,20.30380058],[73.02651978,20.29412079],[73.02979279,20.29226112],[73.03726959,20.29059982],[73.04197693,20.2902298],[73.04416656,20.2911129],[73.04586029,20.29243279],[73.0475769,20.3044529],[73.04767609,20.31661034],[73.05047607,20.32299805],[73.05512238,20.32524109],[73.06204224,20.32574081],[73.06668091,20.32608032],[73.07151031,20.32716942],[73.07525635,20.3296299],[73.08273315,20.32912064],[73.08628845,20.32611084],[73.08863068,20.32648277],[73.09089661,20.32683945],[73.09741211,20.33509827],[73.09916687,20.33993912],[73.10132599,20.35603905],[73.10212708,20.35845947],[73.10253143,20.35967064],[73.10338593,20.3603611],[73.10542297,20.36054039],[73.1073761,20.36071014],[73.11138153,20.35609818],[73.11425018,20.35279083],[73.11638641,20.34716034],[73.11801147,20.34287071],[73.12145996,20.3364296],[73.12195587,20.33287811],[73.11888123,20.32620049],[73.11650848,20.31270981],[73.11440277,20.3106308],[73.11286926,20.30494118],[73.11566162,20.30404091],[73.1291275,20.30578041],[73.1342926,20.30532837],[73.13931274,20.30957985],[73.14015198,20.31468964],[73.1417923,20.31746101],[73.14731598,20.31682968],[73.15242004,20.31747055],[73.16139984,20.31719017],[73.16551971,20.31592941],[73.16838074,20.31380081],[73.17073822,20.31052971],[73.17710114,20.31232262],[73.17801666,20.31071091],[73.17753601,20.30907059],[73.17710876,20.30759811],[73.17698669,20.30088043],[73.17954254,20.28986168],[73.17887878,20.28646088],[73.17578888,20.28417015],[73.17195129,20.28250122],[73.1690979,20.28231812],[73.16680145,20.28341103],[73.1654129,20.28703117],[73.16129303,20.29179192],[73.15820313,20.29048157],[73.15625763,20.28742981],[73.15519714,20.28541946],[73.15513611,20.28236008],[73.1542511,20.27934837],[73.15355682,20.2770195],[73.15254211,20.27667999],[73.14987183,20.28012276],[73.1469574,20.28104973],[73.14628601,20.28053093],[73.14270782,20.27528954],[73.14260101,20.26863098],[73.14095306,20.26523018],[73.13684845,20.26046944],[73.1280365,20.25850105],[73.12458038,20.25671959],[73.11331177,20.24418068],[73.10852051,20.23855019],[73.110466,20.23213005],[73.10192871,20.22894287],[73.0875473,20.23397255],[73.08187866,20.23281288],[73.07685852,20.22980118],[73.07036591,20.22145081],[73.0642395,20.20316124],[73.0666275,20.19787979],[73.0703125,20.19745064],[73.07048035,20.19737053],[73.07303619,20.19613075],[73.07435608,20.19252014],[73.07422638,20.17728043],[73.07244873,20.16345024],[73.07553101,20.16007996],[73.08244324,20.15658951],[73.08648682,20.1570015],[73.08790588,20.16575813],[73.08991241,20.17043114],[73.09348297,20.17389107],[73.09616089,20.17424011],[73.09790802,20.17334938],[73.0994873,20.17257118],[73.10182953,20.16410828],[73.10334015,20.16134834],[73.10514069,20.15996933],[73.10910034,20.15920067],[73.11302948,20.1584301],[73.1167984,20.15879059],[73.11974335,20.15906906],[73.12259674,20.15775108],[73.12494659,20.15666008],[73.12802887,20.15711975],[73.12555695,20.16109276],[73.12606049,20.16362762],[73.13260651,20.16777039],[73.13582611,20.17231941],[73.13947296,20.1731205],[73.14702606,20.17105293],[73.15007019,20.17284012],[73.1523819,20.17605972],[73.15213013,20.17974281],[73.14839935,20.18548012],[73.14602661,20.18739128],[73.14157104,20.20186996],[73.1421814,20.20438957],[73.14575195,20.20697975],[73.14981842,20.20560074],[73.15223694,20.20318985],[73.15284729,20.2027607],[73.15364075,20.20222092],[73.16351318,20.20146942],[73.16895294,20.19968987],[73.17298126,20.20132065],[73.18017578,20.20860863],[73.18113708,20.20240021],[73.1885376,20.20062065],[73.19132996,20.19860268],[73.19586945,20.19752121],[73.20440674,20.19832039],[73.20993042,20.19735146],[73.21615601,20.19278908],[73.21936798,20.19043922],[73.2277832,20.18704987],[73.22915649,20.18429947],[73.22833252,20.18009949],[73.22673035,20.17636108],[73.2220993,20.17142105],[73.21775055,20.16813278],[73.19924164,20.16164017],[73.19609833,20.15611267],[73.19532776,20.15093994],[73.19597626,20.13994026],[73.20069122,20.12969971],[73.21095276,20.12360001],[73.21631622,20.12199974],[73.21774292,20.10634041],[73.21911621,20.09749985],[73.21393585,20.09064102],[73.20691681,20.08371162],[73.20289612,20.08105087],[73.19803619,20.07781029],[73.19890594,20.06227112],[73.18586731,20.05290031],[73.18379974,20.0522995],[73.18144226,20.05162048],[73.17539215,20.05805016],[73.17022705,20.06560135],[73.16329956,20.07311058],[73.15674591,20.07395935],[73.1444931,20.07785988],[73.13954163,20.08427048],[73.13669586,20.08525085],[73.13140106,20.07942963],[73.12967682,20.07884026],[73.12773895,20.07816124],[73.12612152,20.07809067],[73.1231308,20.07793999],[73.11754608,20.07880974],[73.11183167,20.08301163],[73.11038208,20.08461189],[73.10794067,20.08732033],[73.1051712,20.08721924],[73.09844971,20.09366989],[73.08831787,20.09446907],[73.07823181,20.09527016],[73.06063843,20.09906006],[73.05799103,20.09673119],[73.05921173,20.06793022],[73.05281067,20.06767082],[73.04527283,20.07178116],[73.03852844,20.0780983],[73.03177643,20.08442116],[73.02468109,20.09630013],[73.01954651,20.10502052],[73.01020813,20.11040115],[73.01499176,20.12486076],[73.01667023,20.13049126],[73.01702118,20.1324501],[73.01747894,20.13495827],[73.01051331,20.14022255],[73.00875854,20.13701057],[73.00763702,20.13246918],[73.00771332,20.12940025],[73.00778198,20.12639046],[73.00727844,20.12412071],[73.00665283,20.12125015],[73.00431061,20.11791992],[72.9941864,20.11390114],[72.98924255,20.11321259],[72.98532104,20.113451],[72.97962952,20.12529945],[72.97322845,20.13080025],[72.98596191,20.15752983],[72.98623657,20.16271973],[72.98668671,20.17131042],[72.98603821,20.17654991],[72.97619629,20.18001938],[72.97592163,20.18959808],[72.97042847,20.21232986]]]},"properties":{"GID_0":"IND","NAME_0":"India","GID_1":"IND.8_1","NAME_1":"Dadra and Nagar Haveli","NL_NAME_1":"","GID_2":"IND.8.1_1","NAME_2":"Dadra and Nagar Haveli","VARNAME_2":"","NL_NAME_2":"","TYPE_2":"District","ENGTYPE_2":"District","CC_2":"","HASC_2":"IN.DN.DN","district":"Dadra and Nagar Haveli","dtname":"Dadra and Nagar Haveli","st_nm":"Dadra and Nagar Haveli"}},{"type":"Feature","geometry":{"type":"Polygon","coordinates":[[[72.8215332,20.3710804],[72.82178497,20.37101936],[72.8215332,20.37125015],[72.82125092,20.37125015],[72.82125092,20.37152863],[72.8215332,20.3715229],[72.8215332,20.37292099],[72.82180023,20.37292099],[72.82180023,20.37375069],[72.82208252,20.37375069],[72.82208252,20.37430954],[72.82235718,20.37430954],[72.82235718,20.37486076],[72.82263947,20.37486076],[72.82263947,20.37541962],[72.82290649,20.37541962],[72.82290649,20.37625122],[72.82319641,20.37624931],[72.82319641,20.37708282],[72.82347107,20.37708282],[72.82347107,20.37819481],[72.82375336,20.37819099],[72.82375336,20.37903023],[72.82402802,20.37902641],[72.82402802,20.37986183],[72.82430267,20.37985992],[72.82430267,20.38042068],[72.82458496,20.38041878],[72.82458496,20.38124847],[72.82485962,20.38124847],[72.82485962,20.38208389],[72.82514191,20.38207817],[72.82514191,20.38264084],[72.82541656,20.38264084],[72.82541656,20.38347244],[72.82569122,20.38345909],[72.82569122,20.38402939],[72.82597351,20.38402748],[72.82597351,20.38458252],[72.82624817,20.38458252],[72.82624817,20.38513947],[72.82653046,20.38513947],[72.82653046,20.3856945],[72.82680511,20.3856945],[72.82681274,20.38680077],[72.82707977,20.38680649],[72.82707977,20.38736153],[72.82763672,20.38735962],[72.82763672,20.38764],[72.82791901,20.38763809],[72.82791901,20.3884716],[72.82763672,20.3884697],[72.82763672,20.38903046],[72.82736206,20.38903046],[72.82736206,20.39014053],[72.82763672,20.39013863],[72.82763672,20.39069366],[72.82791901,20.39069366],[72.82791901,20.39208412],[72.82819366,20.39208412],[72.82819366,20.39458275],[72.82847595,20.39458084],[72.82847595,20.40042114],[72.82875061,20.40041733],[72.82875061,20.4034729],[72.82847595,20.40347099],[72.82847595,20.40513992],[72.82875061,20.40513992],[72.82875061,20.40624809],[72.82902527,20.40624809],[72.82902527,20.40708351],[72.82930756,20.40708351],[72.82930756,20.40819359],[72.82958221,20.40819359],[72.82958221,20.40847015],[72.82985687,20.40846825],[72.82985687,20.40903091],[72.83013916,20.4090271],[72.83013916,20.40958405],[72.83040619,20.40958023],[72.83040619,20.40986252],[72.83069611,20.40986252],[72.83069611,20.4101429],[72.83097076,20.4101429],[72.83097076,20.41041946],[72.83125305,20.41041756],[72.83125305,20.41122818],[72.83125305,20.41263962],[72.83069611,20.41263962],[72.83069611,20.41319466],[72.83041382,20.41319466],[72.83041382,20.41347313],[72.83013916,20.41347122],[72.83013916,20.41374969],[72.8298645,20.41374969],[72.8298645,20.41430473],[72.82958221,20.41430092],[72.82958221,20.41542053],[72.82930756,20.41542053],[72.82930756,20.42124748],[72.82902527,20.42124748],[72.82902527,20.42569351],[72.82875061,20.42569542],[72.82875061,20.4295826],[72.82847595,20.42958069],[72.82847595,20.42986107],[72.82819366,20.42986107],[72.82819366,20.43208313],[72.82847595,20.43208122],[72.82847595,20.43374825],[72.82875061,20.43374825],[72.82875061,20.43431091],[72.8290329,20.43431091],[72.8290329,20.43514061],[72.82930756,20.43514061],[72.82930756,20.43625259],[72.82958221,20.43625259],[72.82958221,20.4370842],[72.82985687,20.43708038],[72.82985687,20.43875122],[72.83013916,20.43874931],[72.83013916,20.43958473],[72.83040619,20.43958282],[72.83040619,20.44042015],[72.83069611,20.44041634],[72.83069611,20.44097137],[72.83097076,20.44096947],[72.83097076,20.44153023],[72.83125305,20.44152832],[72.83125305,20.44208336],[72.83152771,20.44207954],[72.83152771,20.4426403],[72.83180237,20.4426384],[72.83180237,20.44347191],[72.83207703,20.44347],[72.83207703,20.44403076],[72.83235931,20.44403076],[72.83235931,20.44486046],[72.8326416,20.44486046],[72.8326416,20.44597244],[72.83291626,20.44597054],[72.83291626,20.44625092],[72.83347321,20.44625092],[72.83347321,20.44652748],[72.83374786,20.44652748],[72.83374786,20.44680595],[72.83403015,20.44680023],[72.83403015,20.44735909],[72.8345871,20.44735909],[72.8345871,20.44791985],[72.83486176,20.44791603],[72.83486176,20.4481945],[72.83513641,20.44819069],[72.83513641,20.44875145],[72.8354187,20.44875145],[72.8354187,20.44903183],[72.83569336,20.44902992],[72.83569336,20.44986153],[72.83598328,20.44986153],[72.83598328,20.45014191],[72.83625031,20.45014191],[72.83625031,20.45042038],[72.83652496,20.45041656],[72.83652496,20.45125008],[72.83679962,20.45125008],[72.83679962,20.45153046],[72.83708191,20.45153046],[72.83708191,20.45181084],[72.83735657,20.45181084],[72.8373642,20.45236015],[72.83763885,20.45236015],[72.83763885,20.45264053],[72.83791351,20.45263863],[72.83791351,20.45319366],[72.8381958,20.45319366],[72.8381958,20.45347214],[72.83847046,20.45347023],[72.83847046,20.45375061],[72.8390274,20.45375061],[72.8390274,20.45403099],[72.83930206,20.45403099],[72.83930206,20.45430946],[72.83957672,20.45430946],[72.83957672,20.45486069],[72.8401413,20.45486069],[72.8401413,20.45514107],[72.84041595,20.45514107],[72.84041595,20.45541954],[72.84069824,20.45541954],[72.84069824,20.45569992],[72.8409729,20.4556942],[72.8409729,20.45597267],[72.84123993,20.45597076],[72.84124756,20.45625114],[72.84152985,20.45624924],[72.84152985,20.45634842],[72.84152985,20.45652962],[72.84166718,20.45652771],[72.8418045,20.45652771],[72.8418045,20.45669937],[72.84179688,20.45681],[72.84191132,20.45680618],[72.84208679,20.45680428],[72.84208679,20.45708275],[72.84236145,20.45708084],[72.84236145,20.45736122],[72.84263611,20.45736122],[72.84263611,20.45775032],[72.84263611,20.45792007],[72.84276581,20.45791626],[72.8429184,20.45791626],[72.8429184,20.45819473],[72.84347534,20.45819473],[72.84347534,20.4584713],[72.84401703,20.45846939],[72.84401703,20.45902824],[72.84430695,20.45902634],[72.84430695,20.45930481],[72.8445816,20.45930481],[72.8445816,20.45958328],[72.84541321,20.45958328],[72.84541321,20.45986176],[72.84597015,20.45986176],[72.84597015,20.45958328],[72.84625244,20.45957947],[72.84625244,20.46013832],[72.84680176,20.46013832],[72.84680939,20.46042061],[72.84764099,20.46042061],[72.84764099,20.46069908],[72.84791565,20.46069527],[72.84791565,20.46097183],[72.8484726,20.46096992],[72.8484726,20.4612484],[72.84902954,20.4612484],[72.84902954,20.46153069],[72.8493042,20.46152687],[72.8493042,20.46180534],[72.84986115,20.46180534],[72.84986115,20.46208382],[72.8501358,20.46207809],[72.8501358,20.46264076],[72.85041809,20.46264076],[72.85041809,20.46292114],[72.85124969,20.46291733],[72.85124969,20.46319389],[72.85152435,20.46319389],[72.85152435,20.46347237],[72.8520813,20.46347237],[72.8520813,20.46319389],[72.85236359,20.46319389],[72.85236359,20.46347237],[72.8529129,20.46347237],[72.8529129,20.46375275],[72.85320282,20.46375275],[72.85320282,20.46403122],[72.85346985,20.4640274],[72.85346985,20.46458054],[72.85375214,20.46458054],[72.85375214,20.46487045],[72.85402679,20.46487045],[72.85402679,20.46513939],[72.85430908,20.46513939],[72.85430908,20.46569443],[72.85514069,20.46569443],[72.85514069,20.46597481],[72.85597229,20.46597481],[72.85597229,20.46569443],[72.85624695,20.46569443],[72.85624695,20.46541595],[72.85679626,20.46541977],[72.85679626,20.46513939],[72.85708618,20.46513939],[72.85708618,20.46487045],[72.85874939,20.46487045],[72.85874939,20.46458054],[72.85901642,20.46458054],[72.85901642,20.46487045],[72.85930634,20.46487045],[72.85930634,20.46541977],[72.85902405,20.46541595],[72.85902405,20.46569443],[72.85874939,20.46569443],[72.85874939,20.46597481],[72.8584671,20.4659729],[72.8584671,20.46681023],[72.85874939,20.46680641],[72.85874939,20.46708488],[72.85901642,20.46708107],[72.85901642,20.46763992],[72.85930634,20.46763992],[72.85930634,20.46820068],[72.85958099,20.46820068],[72.85958099,20.46875],[72.85986328,20.46875],[72.85986328,20.47042084],[72.86013794,20.47041512],[72.86013794,20.47096062],[72.86340332,20.46883965],[72.86589813,20.46751022],[72.8664093,20.46469688],[72.87428284,20.46296692],[72.88248444,20.46276665],[72.88564301,20.45907021],[72.88744354,20.45333099],[72.89000702,20.44886017],[72.89334869,20.44538689],[72.89280701,20.44166946],[72.88877869,20.43915558],[72.88488007,20.44006157],[72.87704468,20.44462204],[72.87340546,20.44420815],[72.86811066,20.434412],[72.86154938,20.42836952],[72.85932159,20.42437363],[72.86031342,20.41961479],[72.86510468,20.41617584],[72.8688736,20.41582489],[72.87956238,20.41846848],[72.88889313,20.41911316],[72.89583588,20.42136002],[72.89962769,20.41921425],[72.90261078,20.41524124],[72.90330505,20.41033745],[72.90042114,20.40526772],[72.88951111,20.3982811],[72.88632202,20.39336777],[72.88685608,20.38718224],[72.88873291,20.38420105],[72.89564514,20.38036346],[72.89637756,20.37669563],[72.89354706,20.37214661],[72.88378143,20.370224],[72.87988281,20.3707695],[72.87520599,20.3728199],[72.86501312,20.37241173],[72.85894775,20.37434006],[72.8353653,20.37371254],[72.83132935,20.36873817],[72.82649231,20.36676025],[72.8215332,20.3710804]]]},"properties":{"GID_0":"IND","NAME_0":"India","GID_1":"IND.9_1","NAME_1":"Daman and Diu","NL_NAME_1":"","GID_2":"IND.9.1_1","NAME_2":"Daman","VARNAME_2":"","NL_NAME_2":"","TYPE_2":"District","ENGTYPE_2":"District","CC_2":"","HASC_2":"IN.DD.DA","district":"Daman","dtname":"Daman","st_nm":"Daman and Diu"}},{"type":"Feature","geometry":{"type":"Polygon","coordinates":[[[70.96263885,20.72938156],[70.96263885,20.72903061],[70.96235657,20.72903061],[70.96235657,20.72846985],[70.96208191,20.72847176],[70.96208191,20.72791672],[70.96179962,20.72792053],[70.96179962,20.72707939],[70.96152496,20.72708321],[70.96152496,20.72597313],[70.96125031,20.72597313],[70.96125031,20.72319412],[70.96152496,20.72319412],[70.96152496,20.72263908],[70.96179962,20.72264099],[70.96179962,20.72236061],[70.96208191,20.72236061],[70.96208191,20.72208023],[70.9623642,20.72208595],[70.9623642,20.72180557],[70.96290588,20.72180939],[70.96290588,20.72153091],[70.96347046,20.72153091],[70.96347046,20.72180939],[70.96375275,20.72180939],[70.96375275,20.72153091],[70.9640274,20.72153091],[70.9640274,20.72180939],[70.9651413,20.72180557],[70.9651413,20.72208595],[70.96541595,20.72208023],[70.96541595,20.72291946],[70.96347046,20.72291756],[70.96347046,20.72319412],[70.96291351,20.72319412],[70.96291351,20.7234726],[70.96263885,20.72347069],[70.96263885,20.72513962],[70.96291351,20.72513962],[70.96291351,20.72569466],[70.9631958,20.72569466],[70.9631958,20.72597313],[70.96347046,20.72597122],[70.96347046,20.72652817],[70.96375275,20.72652626],[70.96375275,20.72680473],[70.9640274,20.72680473],[70.9640274,20.72708321],[70.96430206,20.72708321],[70.96430206,20.72736168],[70.96457672,20.72735977],[70.96457672,20.72763824],[70.96485901,20.72763824],[70.96485901,20.72792053],[70.9651413,20.72792053],[70.9651413,20.72820091],[70.96541595,20.72819519],[70.96541595,20.72847176],[70.96763611,20.72847176],[70.96763611,20.72819519],[70.96819305,20.72820091],[70.96819305,20.72792053],[70.96901703,20.72792053],[70.96901703,20.72763824],[70.97070313,20.72763824],[70.97070313,20.72707939],[70.97180176,20.72708321],[70.97180176,20.72680473],[70.9723587,20.72680473],[70.9723587,20.72652626],[70.97292328,20.72652817],[70.97292328,20.72624969],[70.97374725,20.72624969],[70.97373962,20.72597122],[70.97458649,20.72597313],[70.97458649,20.72569466],[70.97541809,20.72569466],[70.97541809,20.72541618],[70.97569275,20.72541809],[70.97569275,20.72513962],[70.97598267,20.72513962],[70.97597504,20.72486115],[70.97624969,20.72486115],[70.97624969,20.72430992],[70.97651672,20.72430992],[70.97651672,20.72402954],[70.97679901,20.72402954],[70.97679901,20.72375107],[70.9770813,20.72375107],[70.9770813,20.72319031],[70.97736359,20.72319412],[70.97736359,20.72291756],[70.97763824,20.72291946],[70.97763824,20.72264099],[70.9779129,20.72264099],[70.9779129,20.72236061],[70.97820282,20.72236061],[70.97819519,20.72208595],[70.97875214,20.72208595],[70.97875214,20.72180557],[70.97902679,20.72180939],[70.97902679,20.72153091],[70.97930908,20.72153091],[70.97930908,20.72125053],[70.97957611,20.72125053],[70.97957611,20.72068977],[70.9798584,20.72069359],[70.9798584,20.72041702],[70.98152924,20.72042084],[70.98152924,20.72014046],[70.98236084,20.72014046],[70.98236084,20.71986008],[70.9834671,20.71986008],[70.9834671,20.72014046],[70.98596954,20.72014046],[70.98596954,20.71986008],[70.98625183,20.71986389],[70.98625183,20.71958351],[70.98652649,20.71958351],[70.98652649,20.71930504],[70.98764038,20.71931076],[70.98764038,20.71903038],[70.98958588,20.71903038],[70.98958588,20.71875191],[70.99014282,20.71875191],[70.99013519,20.71847343],[70.99069214,20.71847343],[70.99069214,20.71819496],[70.9909668,20.71820068],[70.9909668,20.7179203],[70.99124908,20.7179203],[70.99124908,20.71735954],[70.99153137,20.71735954],[70.99153137,20.71708107],[70.99208069,20.71708107],[70.99208069,20.71680641],[70.99318695,20.71681023],[70.99318695,20.71653175],[70.99402618,20.71653175],[70.99402618,20.71624947],[70.9970932,20.71624947],[70.99708557,20.7159729],[70.99736023,20.7159729],[70.99736023,20.71569443],[70.99764252,20.71569443],[70.99764252,20.71442032],[70.99764252,20.7140274],[70.99736023,20.71403122],[70.99736023,20.71347046],[70.99708557,20.71347237],[70.99708557,20.71319389],[70.99680328,20.71319389],[70.99680328,20.71291733],[70.99624634,20.71292114],[70.99624634,20.71236038],[70.99597168,20.71236038],[70.99597168,20.71208],[70.99514008,20.71208382],[70.99514008,20.71180534],[70.99487305,20.71181107],[70.99487305,20.71125031],[70.99458313,20.71125031],[70.99458313,20.71096992],[70.99430847,20.71097183],[70.99430847,20.71069527],[70.99346924,20.71070099],[70.99346924,20.71042061],[70.99291992,20.71042061],[70.99291992,20.71014023],[70.99153137,20.71014023],[70.99153137,20.70985985],[70.99041748,20.70986176],[70.99041748,20.70930672],[70.99013519,20.70930672],[70.99013519,20.70902824],[70.98986053,20.70903015],[70.98986053,20.70874977],[70.98958588,20.70874977],[70.98958588,20.70845985],[70.98902893,20.70845985],[70.98902893,20.70874977],[70.98873901,20.70874977],[70.98873901,20.70903015],[70.98847198,20.70902824],[70.98847198,20.70930672],[70.98791504,20.70930672],[70.98791504,20.70958328],[70.98680878,20.70958328],[70.98680878,20.70930672],[70.98569489,20.70930672],[70.98569489,20.70902824],[70.98513794,20.70903015],[70.98513794,20.70845985],[70.98486328,20.7084713],[70.98486328,20.70791626],[70.98458099,20.70792007],[70.98458099,20.70763969],[70.9834671,20.70763969],[70.9834671,20.70736122],[70.98208618,20.70736122],[70.98208618,20.70708275],[70.98152924,20.70708466],[70.98152924,20.70680618],[70.98097229,20.70681],[70.98097229,20.70652962],[70.98042297,20.70652962],[70.98042297,20.70625114],[70.98014069,20.70625114],[70.98014069,20.70597267],[70.97930908,20.70597267],[70.97930908,20.7056942],[70.97902679,20.7056942],[70.97902679,20.70541763],[70.97875214,20.70541954],[70.97875214,20.70458031],[70.97846985,20.70458412],[70.97846985,20.70430565],[70.97820282,20.70430946],[70.97820282,20.7040329],[70.9779129,20.7040329],[70.9779129,20.70375252],[70.97763824,20.70375252],[70.97763824,20.70347023],[70.97736359,20.70347023],[70.97736359,20.70205116],[70.97736359,20.70180511],[70.9770813,20.70181084],[70.9770813,20.70153046],[70.97624969,20.70153046],[70.97624969,20.70181084],[70.97597504,20.70180511],[70.97597504,20.70197105],[70.97597504,20.70208359],[70.97569275,20.70207977],[70.97569275,20.70292091],[70.97597504,20.7029171],[70.97597504,20.70319366],[70.97624969,20.70318985],[70.97624969,20.7040329],[70.97429657,20.7040329],[70.97429657,20.70375252],[70.97292328,20.70375252],[70.97292328,20.7040329],[70.97264099,20.70402718],[70.97264099,20.70458412],[70.9723587,20.70458412],[70.9723587,20.70430565],[70.97207642,20.70430946],[70.97207642,20.7040329],[70.9715271,20.7040329],[70.9715271,20.70430946],[70.9706955,20.70430565],[70.9706955,20.70458412],[70.97041321,20.70458031],[70.97041321,20.70486259],[70.96985626,20.70486259],[70.96985626,20.70541954],[70.97013855,20.70541573],[70.97013855,20.7056942],[70.97041321,20.70569038],[70.97041321,20.70681],[70.97013855,20.70680618],[70.97013855,20.70708466],[70.96736145,20.70708466],[70.96736145,20.70680618],[70.96679687,20.70681],[70.96679687,20.70652962],[70.96624756,20.70652962],[70.96624756,20.70625114],[70.9659729,20.70625114],[70.9659729,20.70597267],[70.96569824,20.70597267],[70.96569061,20.7056942],[70.96541595,20.7056942],[70.96541595,20.70541763],[70.9640274,20.70541763],[70.9640274,20.7056942],[70.96235657,20.70569038],[70.96235657,20.70625114],[70.9615097,20.70625114],[70.9615097,20.70652962],[70.9604187,20.70652962],[70.9604187,20.70681],[70.96013641,20.70681],[70.96013641,20.70625114],[70.95986176,20.70625114],[70.95986176,20.70597267],[70.95903015,20.70597267],[70.95903015,20.7056942],[70.95791626,20.7056942],[70.95791626,20.70541763],[70.95774841,20.70541573],[70.9576416,20.70541954],[70.9576416,20.70514107],[70.95735931,20.70514107],[70.95735931,20.70486259],[70.95680237,20.70486259],[70.95680237,20.70458031],[70.95625305,20.70458412],[70.95625305,20.70430565],[70.95597076,20.70430946],[70.95597076,20.7040329],[70.95540619,20.7040329],[70.95540619,20.70375252],[70.95181274,20.70375252],[70.95181274,20.7040329],[70.95096588,20.7040329],[70.95096588,20.70430946],[70.95041656,20.70430565],[70.95041656,20.70458412],[70.94985962,20.70458031],[70.94985962,20.70486259],[70.94875336,20.70486259],[70.94875336,20.70514107],[70.94763947,20.70514107],[70.94763947,20.70541954],[70.94596863,20.70541763],[70.94596863,20.7056942],[70.94374847,20.7056942],[70.94374847,20.70597267],[70.94319153,20.70597267],[70.94319153,20.70625114],[70.94235992,20.70625114],[70.94235992,20.70652962],[70.94152832,20.70652962],[70.94152832,20.70681],[70.94097137,20.70680618],[70.94097137,20.70708466],[70.93930817,20.70708275],[70.93930817,20.70736122],[70.93902588,20.70736122],[70.93902588,20.70763969],[70.93875122,20.70763969],[70.93875122,20.70792007],[70.93846893,20.70791626],[70.93846893,20.70819473],[70.93791962,20.70819092],[70.93791962,20.70903015],[70.93763733,20.70902824],[70.93763733,20.70930672],[70.93736267,20.70930672],[70.93736267,20.70958328],[70.93708038,20.70958328],[70.93708038,20.70986176],[70.93653107,20.70985985],[70.93653107,20.71014023],[70.93596649,20.71014023],[70.93596649,20.71042061],[70.93541718,20.71042061],[70.93541718,20.71070099],[70.93458557,20.71069527],[70.93458557,20.71097183],[70.9329071,20.71096992],[70.93291473,20.71125031],[70.9318161,20.71125031],[70.9318161,20.71153069],[70.92930603,20.71153069],[70.92930603,20.71181107],[70.92514038,20.71181107],[70.92514038,20.71153069],[70.92346954,20.71153069],[70.92346954,20.71125031],[70.92263031,20.71125031],[70.92263031,20.71096992],[70.92180634,20.71097183],[70.92180634,20.71069527],[70.92041779,20.71070099],[70.92041779,20.71042061],[70.91929626,20.71042061],[70.91929626,20.71014023],[70.91874695,20.71014023],[70.91874695,20.70985985],[70.91847229,20.70986176],[70.91847229,20.70958328],[70.91764069,20.70958328],[70.91764069,20.70930672],[70.9173584,20.70930672],[70.9173584,20.70874977],[70.91707611,20.70874977],[70.91707611,20.70845985],[70.91652679,20.7084713],[70.91652679,20.70819473],[70.91625214,20.70819473],[70.91625214,20.70763969],[70.91596985,20.70763969],[70.91596985,20.70652962],[70.91570282,20.70652962],[70.91570282,20.70569038],[70.9154129,20.7056942],[70.9154129,20.70486259],[70.91570282,20.70486259],[70.91569519,20.70347023],[70.91596985,20.70347023],[70.91596985,20.70263863],[70.91625214,20.70265007],[70.91625214,20.70235825],[70.91819763,20.70235825],[70.91819763,20.70207977],[70.91791534,20.70208359],[70.91791534,20.70153046],[70.91707611,20.70153046],[70.91707611,20.70124817],[70.91652679,20.70124817],[70.91652679,20.7009697],[70.91569519,20.7009716],[70.91569519,20.70069504],[70.9154129,20.70070076],[70.9154129,20.70042038],[70.91513824,20.70042038],[70.91513824,20.70013809],[70.91485596,20.70013809],[70.91485596,20.69985962],[70.91430664,20.69986153],[70.91430664,20.69958305],[70.91401672,20.69959068],[70.91401672,20.69902992],[70.9126358,20.69902992],[70.9126358,20.6993103],[70.91179657,20.6993103],[70.91179657,20.70042038],[70.91152954,20.70041656],[70.91152954,20.70152092],[70.91152954,20.70181084],[70.9106369,20.70181084],[70.91014099,20.70181084],[70.91014099,20.70153046],[70.9098587,20.70153046],[70.9098587,20.7009697],[70.90930176,20.7009716],[70.90930176,20.70069504],[70.90764618,20.70070076],[70.90764618,20.70042038],[70.90735626,20.70042038],[70.90735626,20.70070076],[70.90625,20.70070076],[70.90625,20.70042038],[70.90513611,20.70042038],[70.90513611,20.70013809],[70.9034729,20.70013809],[70.9034729,20.69985962],[70.9026413,20.69986153],[70.9026413,20.69958305],[70.90151978,20.69959068],[70.90151978,20.6993103],[70.90125275,20.6993103],[70.90125275,20.69902992],[70.90013885,20.69902992],[70.90013885,20.69874954],[70.89930725,20.69874954],[70.89930725,20.69902992],[70.89901733,20.69902992],[70.89901733,20.6993103],[70.89875031,20.6993103],[70.89875031,20.69959068],[70.89847565,20.69958305],[70.89847565,20.69986153],[70.8979187,20.69985962],[70.8979187,20.70013809],[70.89736176,20.70013809],[70.89736176,20.70042038],[70.8970871,20.70041656],[70.8970871,20.7009716],[70.89736176,20.7009697],[70.89736176,20.70124817],[70.89763641,20.70124817],[70.89763641,20.70208359],[70.8979187,20.70207977],[70.8979187,20.70375252],[70.89763641,20.70375252],[70.89763641,20.70430946],[70.89736176,20.70430946],[70.89736176,20.70486259],[70.89653015,20.70486259],[70.89653015,20.70514107],[70.89624786,20.70513916],[70.89624786,20.7056942],[70.89597321,20.7056942],[70.89597321,20.70597267],[70.89576721,20.70597267],[70.89541626,20.70597267],[70.89541626,20.70625114],[70.8951416,20.70625114],[70.8951416,20.70652962],[70.89485931,20.70652962],[70.89485931,20.70681],[70.89458466,20.70680618],[70.89458466,20.70708466],[70.89430237,20.70708275],[70.89430237,20.70736122],[70.89375305,20.70736122],[70.89375305,20.70763969],[70.89290619,20.70763969],[70.89290619,20.70792007],[70.89208221,20.70791626],[70.89208221,20.70819092],[70.89295959,20.71302032],[70.89689636,20.72000122],[70.89965057,20.7238903],[70.90487671,20.72652817],[70.92093658,20.72891045],[70.92965698,20.73192024],[70.93403625,20.73595047],[70.93889618,20.73648834],[70.94854736,20.73374176],[70.96203613,20.7292099],[70.96263885,20.72938156]]]},"properties":{"GID_0":"IND","NAME_0":"India","GID_1":"IND.9_1","NAME_1":"Daman and Diu","NL_NAME_1":"","GID_2":"IND.9.2_1","NAME_2":"Diu","VARNAME_2":"","NL_NAME_2":"","TYPE_2":"District","ENGTYPE_2":"District","CC_2":"","HASC_2":"IN.DD.DI","district":"Diu","dtname":"Diu","st_nm":"Daman and Diu"}}]}