{"type":"FeatureCollection","features":[{"type":"Feature","geometry":{"type":"Polygon","coordinates":[[[76.80845642,33.24232101],[76.80795288,33.24388885],[76.7947464,33.25175095],[76.7841568,33.26855087],[76.77435303,33.28026962],[76.73774719,33.2838974],[76.72632599,33.2838974],[76.71633911,33.29960251],[76.7077713,33.31530762],[76.6963501,33.32530212],[76.68206787,33.32101822],[76.67208099,33.31102371],[76.65209198,33.30388641],[76.61496735,33.30817032],[76.58784485,33.31673431],[76.57927704,33.32101822],[76.58641815,33.33672333],[76.59783936,33.34957123],[76.60498047,33.36812973],[76.60211945,33.39525604],[76.59069824,33.40953445],[76.57642365,33.42666626],[76.57070923,33.44522476],[76.54786682,33.46664047],[76.52788544,33.48377228],[76.50789642,33.49805069],[76.51074982,33.50947189],[76.50971222,33.52878952],[76.49041748,33.52577209],[76.47309113,33.53442001],[76.46206665,33.54933929],[76.42080688,33.5394516],[76.40081787,33.5394516],[76.38511658,33.55515671],[76.36736298,33.56956863],[76.33514404,33.60084152],[76.31487274,33.6067009],[76.30659485,33.60512543],[76.29517365,33.59798813],[76.29517365,33.57514572],[76.28375244,33.56657791],[76.26947021,33.56086731],[76.25947571,33.55801392],[76.2480545,33.55944061],[76.23949432,33.54944611],[76.23092651,33.54944611],[76.2237854,33.5323143],[76.15668488,33.53517151],[76.15668488,33.54944611],[76.15668488,33.56515121],[76.14669037,33.56657791],[76.13669586,33.58085632],[76.12527466,33.58228302],[76.12813568,33.59513092],[76.13241577,33.60227203],[76.14526367,33.60798264],[76.14955139,33.62225723],[76.16239929,33.62654114],[76.16525269,33.63938904],[76.16382599,33.69792557],[76.16382599,33.71934128],[76.15811157,33.73361588],[76.15525818,33.75074768],[76.15811157,33.7635994],[76.14669037,33.77359009],[76.14955139,33.7864418],[76.14811707,33.80357361],[76.12813568,33.81499481],[76.11671448,33.82070541],[76.10385895,33.82641602],[76.08958435,33.83498001],[76.08530426,33.84212112],[76.07388306,33.84925842],[76.06674194,33.85639572],[76.06246185,33.85639572],[76.05817413,33.86496353],[76.04104614,33.86781693],[76.04104614,33.87495804],[76.03105164,33.87495804],[76.02962494,33.88352203],[76.01677704,33.88780594],[76.00535583,33.90065384],[76.00106812,33.91207504],[76.01677704,33.91921616],[76.01963043,33.92635345],[76.01391602,33.93920135],[76.00106812,33.94634247],[75.98536682,33.95347977],[75.96537781,33.94919586],[75.95252991,33.95205307],[75.9425354,33.94491196],[75.9282608,33.94776917],[75.92111969,33.95347977],[75.91255188,33.95205307],[75.91112518,33.96061707],[75.9054184,33.96490097],[75.88542938,33.96347427],[75.86258698,33.96347427],[75.84402466,33.96347427],[75.82689667,33.96347427],[75.81975555,33.97346497],[75.83260345,33.98060608],[75.83545685,33.98488617],[75.84259796,33.99202728],[75.83688354,34.00059128],[75.82546234,34.00344849],[75.81975555,34.01201248],[75.80833435,34.01344299],[75.79833984,34.02058029],[75.79691315,34.0248642],[75.78263855,34.02914429],[75.76978302,34.0362854],[75.75265503,34.03913879],[75.74408722,34.05341721],[75.73409271,34.0562706],[75.72981262,34.07197571],[75.72695923,34.08768082],[75.71696472,34.09481812],[75.70554352,34.10623932],[75.68861389,34.11798859],[75.68126678,34.12194443],[75.67556,34.13051224],[75.66699219,34.13907623],[75.67841339,34.15192413],[75.68983459,34.16477585],[75.68983459,34.17619705],[75.68126678,34.17762375],[75.67841339,34.18333435],[75.66699219,34.18619156],[75.6598587,34.19047165],[75.65414429,34.19475555],[75.63700867,34.19761276],[75.62987518,34.20475006],[75.62416077,34.20046616],[75.61416626,34.19618225],[75.61131287,34.19190216],[75.59846497,34.18048096],[75.58847046,34.18048096],[75.57847595,34.18048096],[75.57562256,34.18904495],[75.57562256,34.19618225],[75.56705475,34.20475006],[75.55563354,34.20617676],[75.54135895,34.20617676],[75.53564453,34.21188736],[75.52279663,34.21188736],[75.52279663,34.22188187],[75.50852203,34.22045517],[75.49282074,34.21902847],[75.48853302,34.22901917],[75.48425293,34.23472977],[75.48139191,34.24900818],[75.47283173,34.25329208],[75.47140503,34.27185059],[75.4585495,34.27327728],[75.4471283,34.28327179],[75.4200058,34.28184509],[75.40406799,34.28083038],[75.39002228,34.27756119],[75.38574219,34.28755569],[75.38288879,34.30040359],[75.38859558,34.3161087],[75.37860107,34.32039261],[75.38002777,34.33324051],[75.38002777,34.34751892],[75.37146759,34.36322403],[75.36147308,34.36465073],[75.35575867,34.37464523],[75.36727142,34.39170837],[75.36575317,34.40462494],[75.34862518,34.41319275],[75.32720947,34.41604614],[75.32149506,34.43317795],[75.32434845,34.45030975],[75.33720398,34.45744705],[75.35005188,34.45887756],[75.35147858,34.47600937],[75.34005737,34.49028397],[75.33863068,34.50741577],[75.35147858,34.51169968],[75.36432648,34.51741028],[75.36717987,34.54025269],[75.37782288,34.55242157],[75.39497375,34.54880905],[75.41396332,34.54734039],[75.46463776,34.54338837],[75.478508,34.5393486],[75.50609589,34.53733063],[75.51687622,34.53779221],[75.52120209,34.53958893],[75.55179596,34.53813934],[75.56463623,34.53874969],[75.57888794,34.53944016],[75.59188843,34.54006958],[75.61556244,34.53853989],[75.64414978,34.53353882],[75.69230652,34.52153015],[75.71383667,34.5184021],[75.72923279,34.51615906],[75.74920654,34.51583099],[75.76877594,34.5221405],[75.79302979,34.53392029],[75.81047821,34.548172],[75.82064819,34.55891037],[75.84107971,34.57310104],[75.84327698,34.57463074],[75.8814621,34.5907402],[75.91192627,34.60113144],[75.91864777,34.60483932],[75.93221283,34.62443161],[75.94625092,34.63117981],[75.96720886,34.63360214],[75.96821594,34.63333893],[75.98327637,34.62940979],[75.99185181,34.62997055],[76.0003891,34.63581085],[76.01436615,34.65357208],[76.02542877,34.66410065],[76.03646088,34.67026901],[76.05502319,34.67602921],[76.07444,34.67631149],[76.08582306,34.6714592],[76.09295654,34.66656113],[76.12193298,34.64665222],[76.13075256,34.64352036],[76.13909149,34.64247894],[76.15791321,34.64340973],[76.19278717,34.65526962],[76.19785309,34.6591301],[76.22737885,34.67214203],[76.23429871,34.67309952],[76.26004791,34.68437195],[76.27511597,34.69364166],[76.28330231,34.70151901],[76.28994751,34.71232224],[76.30150604,34.72444153],[76.31613922,34.73163223],[76.32872009,34.73305511],[76.33856964,34.63132095],[76.37303925,34.61624146],[76.37303925,34.5835228],[76.38196564,34.54485703],[76.42359924,34.5537796],[76.47119141,34.55973053],[76.49796295,34.55675507],[76.52472687,34.53593445],[76.55149841,34.52701187],[76.58718872,34.51214218],[76.58124542,34.47942352],[76.58124542,34.4437294],[76.58124542,34.40803909],[76.59016418,34.38721848],[76.61693573,34.38424301],[76.66452026,34.36937332],[76.68534088,34.35152817],[76.67642212,34.32475662],[76.67344666,34.29204178],[76.66749573,34.26527023],[76.65857697,34.24444962],[76.65857697,34.21470642],[76.67642212,34.20875931],[76.67047119,34.18199158],[76.65139771,34.15486908],[76.68508148,34.13562012],[76.71456909,34.11034012],[76.71211243,34.08086395],[76.67939758,34.08681107],[76.6676178,34.10655975],[76.66047668,34.13368607],[76.64334869,34.13654327],[76.62193298,34.12369537],[76.63049316,34.10370636],[76.64762878,34.08942795],[76.64334869,34.06515884],[76.62050629,34.05802155],[76.59194946,34.06087494],[76.56482697,34.07372665],[76.53199005,34.06373215],[76.51628113,34.04660034],[76.51200104,34.02375793],[76.52484894,33.99663162],[76.55340576,33.98092651],[76.57767487,33.9666481],[76.60622406,33.9495163],[76.60908508,33.91953659],[76.61764526,33.89669418],[76.64048767,33.87813187],[76.66904449,33.87242126],[76.6947403,33.86528397],[76.70902252,33.85100937],[76.72329712,33.83673096],[76.75898743,33.83244705],[76.79325104,33.83244705],[76.81894684,33.82673645],[76.85035706,33.80817795],[76.86463928,33.78818893],[76.88319397,33.76106262],[76.91745758,33.73679352],[76.9488678,33.72108841],[76.98884583,33.7053833],[77.01882172,33.7053833],[77.04023743,33.72394562],[77.05451965,33.73393631],[77.06879425,33.72394562],[77.08164215,33.7110939],[77.10305786,33.7168045],[77.12447357,33.71823502],[77.14588928,33.70110321],[77.18157959,33.67111969],[77.22048187,33.64899063],[77.24546814,33.6364975],[77.26152802,33.61151505],[77.26152802,33.59009933],[77.28651428,33.59188461],[77.31507111,33.58474731],[77.32577515,33.56511688],[77.3578949,33.56511688],[77.38109589,33.5633316],[77.40608215,33.54548645],[77.42392731,33.52942276],[77.44177246,33.51157761],[77.46675873,33.51336288],[77.49887848,33.50444031],[77.51494598,33.48480988],[77.51137543,33.46160889],[77.52249908,33.43296051],[77.54499054,33.41881561],[77.55070496,33.4002533],[77.54213715,33.37741089],[77.52928925,33.36027908],[77.50501251,33.34600449],[77.47503662,33.32886887],[77.45076752,33.30888367],[77.42791748,33.29175186],[77.41506958,33.26890945],[77.39794159,33.24463654],[77.37352753,33.21834564],[77.36510468,33.20037842],[77.36081696,33.18039322],[77.35796356,33.16040421],[77.36225128,33.13898849],[77.36795807,33.11757278],[77.37223816,33.10329819],[77.35368347,33.09758759],[77.33797455,33.08759308],[77.32941437,33.07331467],[77.30942535,33.05904007],[77.30513763,33.03762436],[77.30513763,33.01906586],[77.30371094,32.99765015],[77.28943634,32.99479294],[77.29086304,32.97337723],[77.29086304,32.95196533],[77.29515076,32.93197632],[77.30371094,32.91341782],[77.31227875,32.90342331],[77.31799316,32.89057541],[77.32798004,32.8805809],[77.32941437,32.86487579],[77.33369446,32.84203339],[77.3483963,32.82120132],[77.34046173,32.82054138],[77.33596039,32.81890869],[77.32789612,32.81988144],[77.32161713,32.82239151],[77.32065582,32.82810211],[77.31651306,32.82975006],[77.31086731,32.83766937],[77.3125,32.84630966],[77.30516052,32.85404968],[77.29795837,32.85401154],[77.28874207,32.85261917],[77.28128052,32.85565186],[77.27433777,32.85976028],[77.27009583,32.86640167],[77.25831604,32.87636185],[77.24758148,32.8649292],[77.23887634,32.8651619],[77.23802948,32.86901093],[77.23626709,32.87229919],[77.22782898,32.8769722],[77.224823,32.88002014],[77.22408295,32.88270187],[77.22746277,32.88393021],[77.22930145,32.88679886],[77.22825623,32.89556885],[77.21798706,32.89731216],[77.20453644,32.90637207],[77.18895721,32.91006088],[77.18180084,32.91545105],[77.17385864,32.93112946],[77.1665802,32.92805099],[77.16372681,32.92510986],[77.16156769,32.92111969],[77.16043091,32.91608047],[77.15743256,32.91323853],[77.14618683,32.91402054],[77.15072632,32.92023087],[77.14694977,32.93437958],[77.14855194,32.93791199],[77.14878082,32.94137955],[77.14611053,32.94277191],[77.14612579,32.95639038],[77.13638306,32.9577713],[77.13527679,32.96094131],[77.13553619,32.96467972],[77.13430786,32.96949005],[77.13585663,32.97444916],[77.13639069,32.98046112],[77.12750244,32.98384094],[77.12007141,32.98271179],[77.11238098,32.98413086],[77.10315704,32.98720169],[77.09712219,32.97758102],[77.08418274,32.97367096],[77.07489777,32.97335052],[77.07167053,32.97623062],[77.06593323,32.98553085],[77.05847168,32.98608017],[77.05237579,32.9908905],[77.03531647,32.99967957],[77.02442169,32.99695969],[77.01992035,32.99174881],[77.0112381,32.99324036],[76.99846649,32.98957062],[76.99401855,32.9922905],[76.99147034,32.99285889],[76.98693848,32.99592209],[76.98082733,33.00146103],[76.96652222,33.00720978],[76.96370697,33.01004028],[76.96212769,33.01393127],[76.95677948,33.01673889],[76.94832611,33.01848984],[76.93266296,33.02845001],[76.92414856,33.02896881],[76.91751099,33.03367996],[76.91461182,33.03882217],[76.91332245,33.04420853],[76.9102478,33.05020905],[76.90011597,33.06414032],[76.89694214,33.07099152],[76.89639282,33.07580948],[76.89074707,33.08076096],[76.89093018,33.08459854],[76.89498901,33.09141922],[76.89431,33.09513855],[76.88477325,33.09743881],[76.87741852,33.1072197],[76.87719727,33.11423874],[76.86869049,33.12022018],[76.86044312,33.11637878],[76.85256958,33.11154938],[76.84443665,33.11230087],[76.8391571,33.11529922],[76.83410645,33.12055969],[76.83740234,33.12638855],[76.82808685,33.13167953],[76.82917023,33.13772202],[76.82296753,33.14128876],[76.81725311,33.14200211],[76.81495667,33.14617157],[76.80948639,33.14855194],[76.80345917,33.15568924],[76.80143738,33.16154099],[76.80201721,33.16603088],[76.799263,33.1694603],[76.79812622,33.1733017],[76.80042267,33.17779922],[76.80517578,33.18225861],[76.80661011,33.18473053],[76.80330658,33.19385147],[76.81858826,33.20557022],[76.81716156,33.21223068],[76.81108093,33.21546173],[76.81304932,33.2227211],[76.81785583,33.23114014],[76.82319641,33.23738098],[76.82887268,33.2425499],[76.82834625,33.24639893],[76.82717133,33.24674988],[76.82354736,33.24785995],[76.8219223,33.24835205],[76.817276,33.24850082],[76.81394196,33.24744034],[76.80916595,33.24430084],[76.80845642,33.24232101]]]},"properties":{"GID_0":"IND","NAME_0":"India","GID_1":"IND.14_1","NAME_1":"Jammu and Kashmir","NL_NAME_1":"","GID_2":"IND.14.8_1","NAME_2":"Kargil","VARNAME_2":"","NL_NAME_2":"","TYPE_2":"District","ENGTYPE_2":"District","CC_2":"","HASC_2":"IN.JK.KR","district":"Kargil","dtname":"Kargil","st_nm":"Ladakh"}},{"type":"Feature","geometry":{"type":"Polygon","coordinates":[[[78.41075897,32.51174164],[78.40917206,32.51202011],[78.40892029,32.51271057],[78.40522766,32.51422882],[78.40525818,32.51512146],[78.40141296,32.51818085],[78.4002533,32.52368164],[78.39906311,32.526371],[78.3979187,32.52706909],[78.39438629,32.52853012],[78.38243103,32.52965164],[78.3766861,32.52605057],[78.35636139,32.51266098],[78.31040955,32.47592926],[78.30623627,32.47774887],[78.27851868,32.50793076],[78.29503632,32.52246094],[78.29917145,32.52927017],[78.29662323,32.57751083],[78.30236816,32.57870102],[78.31799316,32.58021164],[78.33175659,32.58486938],[78.34062195,32.59305954],[78.37706757,32.61487961],[78.38881683,32.62322998],[78.3759079,32.62961197],[78.3709259,32.63816071],[78.36315155,32.67198944],[78.36367798,32.68553162],[78.36756897,32.69952011],[78.37782288,32.71931076],[78.37494659,32.72264862],[78.37121582,32.7336998],[78.3707428,32.74584961],[78.37277222,32.76015091],[78.37135315,32.76182938],[78.3642807,32.76298141],[78.34474182,32.76343155],[78.31394958,32.74898148],[78.28765869,32.73783112],[78.2946167,32.73160934],[78.29811096,32.72483063],[78.2985611,32.71974182],[78.29572296,32.71281052],[78.28486633,32.70677948],[78.27274323,32.70293045],[78.25911713,32.70291901],[78.23658752,32.69467163],[78.23326111,32.68370056],[78.22496796,32.67556],[78.2129364,32.66918945],[78.20163727,32.66519928],[78.19499207,32.6673317],[78.18395233,32.66387177],[78.17951202,32.67041016],[78.17047882,32.67721176],[78.15841675,32.67913055],[78.15254211,32.67901993],[78.14444733,32.67660141],[78.13600159,32.6703186],[78.13066101,32.66006088],[78.12666321,32.64910126],[78.12149811,32.64234924],[78.11615753,32.64241028],[78.106987,32.64974213],[78.09926605,32.65996933],[78.09337616,32.66215134],[78.08851624,32.659832],[78.07900238,32.65279007],[78.07293701,32.64440155],[78.06745911,32.6256218],[78.06533051,32.62427902],[78.05901337,32.62458038],[78.0440979,32.6288414],[78.0338974,32.63560867],[78.03273773,32.63375092],[78.03244019,32.62839127],[78.03443146,32.61565018],[78.03675842,32.61085892],[78.04146576,32.6053009],[78.04161072,32.59923935],[78.03579712,32.59194946],[78.02744293,32.58864975],[78.01743317,32.5870285],[77.98705292,32.58819962],[77.9825592,32.58652878],[77.97669983,32.59194183],[77.9749527,32.5963707],[77.96784973,32.60797882],[77.96222687,32.61380005],[77.95947266,32.62073898],[77.95424652,32.6259613],[77.95510101,32.63481903],[77.95265961,32.64039993],[77.9464798,32.64273071],[77.93891144,32.6480217],[77.93229675,32.65620041],[77.92716217,32.66262054],[77.9262085,32.66680908],[77.92021179,32.67951202],[77.9109726,32.68817902],[77.90325165,32.69309998],[77.90239716,32.69841003],[77.90566254,32.70359039],[77.90625763,32.71234894],[77.90847778,32.7163887],[77.90943909,32.72138977],[77.91203308,32.72576904],[77.91847229,32.73078918],[77.91562653,32.73369217],[77.91182709,32.73651123],[77.9143219,32.74177933],[77.91440582,32.74454117],[77.91716003,32.75188065],[77.9179306,32.75691986],[77.91689301,32.76272964],[77.91513062,32.76605988],[77.91227722,32.76716995],[77.90892792,32.77212143],[77.90349579,32.77289963],[77.89949799,32.77532196],[77.89087677,32.77450943],[77.88748169,32.77526093],[77.88089752,32.7754097],[77.876297,32.78001022],[77.87224579,32.78625107],[77.86696625,32.79029083],[77.8690033,32.80036926],[77.86454773,32.80651855],[77.86383057,32.81145096],[77.86126709,32.81616211],[77.85497284,32.82118988],[77.85254669,32.82518005],[77.84760284,32.8284111],[77.83138275,32.83504105],[77.8250885,32.83987045],[77.81881714,32.83853149],[77.8143158,32.8361702],[77.80821228,32.8360405],[77.79899597,32.84584045],[77.79187775,32.84926987],[77.78774261,32.84976196],[77.78087616,32.85409927],[77.77578735,32.854702],[77.76772308,32.85847092],[77.76142883,32.86483002],[77.76597595,32.88029099],[77.77274323,32.8909111],[77.7869873,32.8916893],[77.79250336,32.89807892],[77.79016876,32.90542984],[77.78174591,32.91003036],[77.7780304,32.91577911],[77.75956726,32.92741013],[77.75099182,32.93603134],[77.74762726,32.93941879],[77.74745941,32.9405098],[77.74717712,32.94221115],[77.74478912,32.94586945],[77.73895264,32.94726944],[77.73641968,32.94787216],[77.73412323,32.9503212],[77.7273407,32.95755005],[77.7231369,32.96435928],[77.71248627,32.97180176],[77.70832825,32.96731949],[77.70368958,32.9661293],[77.69988251,32.96903992],[77.69670868,32.97335052],[77.69500732,32.97782135],[77.69087219,32.97941971],[77.67948914,32.97777939],[77.6780014,32.98072052],[77.67086029,32.9862709],[77.66520691,32.98603058],[77.66307831,32.97592926],[77.6599884,32.96895981],[77.65637207,32.96596146],[77.65331268,32.95940018],[77.64987946,32.9582901],[77.64334869,32.95785141],[77.6384964,32.95613861],[77.62336731,32.94454193],[77.61725616,32.94400024],[77.61296082,32.94141006],[77.61071014,32.94231033],[77.60614777,32.94240952],[77.59343719,32.94153976],[77.58637238,32.93989944],[77.58392334,32.94380188],[77.58152771,32.93923187],[77.58096313,32.93450165],[77.57966614,32.93167877],[77.56964874,32.92166138],[77.55384827,32.91310883],[77.54949188,32.9133606],[77.54471588,32.91173172],[77.53531647,32.90229034],[77.52700043,32.89228058],[77.52320099,32.88978195],[77.51956177,32.88737869],[77.5112915,32.88542938],[77.50623322,32.8830719],[77.49434662,32.88151169],[77.48455048,32.88653946],[77.47318268,32.87879181],[77.45522308,32.86174011],[77.448349,32.86167908],[77.43617249,32.8658905],[77.43224335,32.87044907],[77.43122101,32.87582016],[77.42572021,32.88367081],[77.4177475,32.87921143],[77.41013336,32.8782196],[77.40312195,32.88145065],[77.39917755,32.88393021],[77.39733124,32.88698959],[77.39541626,32.8873291],[77.38746643,32.88552094],[77.3793869,32.88082886],[77.37124634,32.8674202],[77.36306763,32.86352921],[77.35968018,32.85958099],[77.35871887,32.85639954],[77.35980988,32.85161972],[77.3626709,32.84659958],[77.36184692,32.84260941],[77.35955048,32.83816147],[77.35647583,32.82527161],[77.3483963,32.82120132],[77.33369446,32.84203339],[77.32941437,32.86487579],[77.32798004,32.8805809],[77.31799316,32.89057541],[77.31227875,32.90342331],[77.30371094,32.91341782],[77.29515076,32.93197632],[77.29086304,32.95196533],[77.29086304,32.97337723],[77.28943634,32.99479294],[77.30371094,32.99765015],[77.30513763,33.01906586],[77.30513763,33.03762436],[77.30942535,33.05904007],[77.32941437,33.07331467],[77.33797455,33.08759308],[77.35368347,33.09758759],[77.37223816,33.10329819],[77.36795807,33.11757278],[77.36225128,33.13898849],[77.35796356,33.16040421],[77.36081696,33.18039322],[77.36510468,33.20037842],[77.37352753,33.21834564],[77.39794159,33.24463654],[77.41506958,33.26890945],[77.42791748,33.29175186],[77.45076752,33.30888367],[77.47503662,33.32886887],[77.50501251,33.34600449],[77.52928925,33.36027908],[77.54213715,33.37741089],[77.55070496,33.4002533],[77.54499054,33.41881561],[77.52249908,33.43296051],[77.51137543,33.46160889],[77.51494598,33.48480988],[77.49887848,33.50444031],[77.46675873,33.51336288],[77.44177246,33.51157761],[77.42392731,33.52942276],[77.40608215,33.54548645],[77.38109589,33.5633316],[77.3578949,33.56511688],[77.32577515,33.56511688],[77.31507111,33.58474731],[77.28651428,33.59188461],[77.26152802,33.59009933],[77.26152802,33.61151505],[77.24546814,33.6364975],[77.22048187,33.64899063],[77.18157959,33.67111969],[77.14588928,33.70110321],[77.12447357,33.71823502],[77.10305786,33.7168045],[77.08164215,33.7110939],[77.06879425,33.72394562],[77.05451965,33.73393631],[77.04023743,33.72394562],[77.01882172,33.7053833],[76.98884583,33.7053833],[76.9488678,33.72108841],[76.91745758,33.73679352],[76.88319397,33.76106262],[76.86463928,33.78818893],[76.85035706,33.80817795],[76.81894684,33.82673645],[76.79325104,33.83244705],[76.75898743,33.83244705],[76.72329712,33.83673096],[76.70902252,33.85100937],[76.6947403,33.86528397],[76.66904449,33.87242126],[76.64048767,33.87813187],[76.61764526,33.89669418],[76.60908508,33.91953659],[76.60622406,33.9495163],[76.57767487,33.9666481],[76.55340576,33.98092651],[76.52484894,33.99663162],[76.51200104,34.02375793],[76.51628113,34.04660034],[76.53199005,34.06373215],[76.56482697,34.07372665],[76.59194946,34.06087494],[76.62050629,34.05802155],[76.64334869,34.06515884],[76.64762878,34.08942795],[76.63049316,34.10370636],[76.62193298,34.12369537],[76.64334869,34.13654327],[76.66047668,34.13368607],[76.6676178,34.10655975],[76.67939758,34.08681107],[76.71211243,34.08086395],[76.71456909,34.11034012],[76.68508148,34.13562012],[76.65139771,34.15486908],[76.67047119,34.18199158],[76.67642212,34.20875931],[76.65857697,34.21470642],[76.65857697,34.24444962],[76.66749573,34.26527023],[76.67344666,34.29204178],[76.67642212,34.32475662],[76.68534088,34.35152817],[76.66452026,34.36937332],[76.61693573,34.38424301],[76.59016418,34.38721848],[76.58124542,34.40803909],[76.58124542,34.4437294],[76.58124542,34.47942352],[76.58718872,34.51214218],[76.55149841,34.52701187],[76.52472687,34.53593445],[76.49796295,34.55675507],[76.47119141,34.55973053],[76.42359924,34.5537796],[76.38196564,34.54485703],[76.37303925,34.5835228],[76.37303925,34.61624146],[76.33856964,34.63132095],[76.32872009,34.73305511],[76.33988953,34.73431778],[76.35073853,34.73470306],[76.38593292,34.73595047],[76.40953827,34.75216675],[76.42761993,34.76243973],[76.43695831,34.76438141],[76.46920013,34.79166794],[76.47177124,34.79302216],[76.47434235,34.79437256],[76.47732544,34.79398727],[76.48973846,34.79238129],[76.51409149,34.78380203],[76.5453186,34.76559067],[76.56181335,34.75833893],[76.57097626,34.75842285],[76.58001709,34.75551605],[76.61804199,34.75606918],[76.65249634,34.75656128],[76.67163849,34.75741959],[76.6818161,34.75959015],[76.68719482,34.7632103],[76.69670105,34.77912903],[76.70619202,34.80125046],[76.72728729,34.82089996],[76.73784637,34.83074188],[76.74324036,34.84009933],[76.74468994,34.84473038],[76.74343872,34.86489105],[76.73886108,34.90192795],[76.74337006,34.91814041],[76.74936676,34.92660141],[76.76242828,34.93299103],[76.76419067,34.93312073],[76.79933929,34.93577194],[76.80442047,34.93432999],[76.81105042,34.93545532],[76.82552338,34.94165421],[76.84815216,34.95796967],[76.85315704,34.963871],[76.86315155,34.97084045],[76.87004089,34.97243118],[76.88350677,34.97032928],[76.89846802,34.9642601],[76.90140533,34.96307373],[76.90843201,34.96168518],[76.95034027,34.94094086],[76.9703598,34.93558121],[76.98874664,34.93521881],[76.99748993,34.93915176],[77.01013947,34.95628738],[77.01145172,34.96670914],[77.01130676,34.9727211],[77.01065826,35],[77.01029968,35.01618195],[77.01094818,35.02759171],[77.01378632,35.03512192],[77.01809692,35.03846359],[77.0269165,35.04079437],[77.03677368,35.03236389],[77.068367,35.02412033],[77.08137512,35.02633667],[77.10980225,35.03932953],[77.1568222,35.05469894],[77.17558289,35.06679153],[77.19481659,35.0791893],[77.28079224,35.13828659],[77.2951889,35.14562988],[77.30075073,35.14847946],[77.37944031,35.19789124],[77.38440704,35.19916916],[77.41883087,35.22006989],[77.44252014,35.23443985],[77.48542023,35.26654053],[77.53961182,35.29777908],[77.58502197,35.3239212],[77.6505661,35.36708069],[77.66091919,35.37522888],[77.73551178,35.43384171],[77.76036835,35.45117569],[77.77467346,35.4601593],[77.81465149,35.48524857],[77.81929016,35.49328995],[77.82392883,35.50133133],[77.84082031,35.50111008],[77.84307861,35.50098419],[77.84677887,35.50078201],[77.85018921,35.49172974],[77.85131836,35.48873901],[77.8626709,35.45859146],[77.86872101,35.45051956],[77.87941742,35.43624878],[77.88477325,35.43195724],[77.8886261,35.42887115],[77.89956665,35.42789459],[77.90296936,35.42758942],[77.91018677,35.42935944],[77.9198761,35.43433762],[77.92092896,35.4348793],[77.92801666,35.44054031],[77.94377899,35.46295547],[77.94458771,35.46411133],[77.95128632,35.47364044],[77.96172333,35.48006058],[77.9668808,35.48131561],[77.99064636,35.48711014],[78.00999451,35.48918915],[78.01998138,35.49026108],[78.04535675,35.49108887],[78.06375122,35.49169159],[78.06481934,35.49172592],[78.07935333,35.49219894],[78.08194733,35.49169922],[78.08769989,35.49058914],[78.09429932,35.48929977],[78.10398865,35.48445892],[78.10704803,35.4804306],[78.10983276,35.47676849],[78.1108017,35.47266006],[78.10769653,35.46456909],[78.10449982,35.4618187],[78.09732819,35.45563889],[78.07964325,35.44815063],[78.07183075,35.44684982],[78.07019043,35.44464111],[78.06887817,35.44287872],[78.0316925,35.42306137],[78.03009796,35.42046738],[78.02983093,35.42002869],[78.02845764,35.41928101],[78.02459717,35.41717148],[78.02120209,35.41688156],[78.02076721,35.41646957],[78.0194931,35.41526031],[77.99707031,35.39408875],[77.99028778,35.37903214],[77.98995972,35.36363983],[77.99185181,35.34854889],[77.99434662,35.34492874],[78.00151062,35.29796982],[78.00202179,35.29462051],[78.00636292,35.29035187],[78.01370239,35.26418686],[78.01774597,35.24975204],[78.03183746,35.2202301],[78.04276276,35.20233154],[78.04360962,35.20132828],[78.05221558,35.19109726],[78.05755615,35.1847496],[78.0597229,35.18310928],[78.06902313,35.17604065],[78.07740021,35.1727066],[78.07834625,35.17232895],[78.11605072,35.14535141],[78.11843872,35.14243698],[78.12417603,35.13542175],[78.12605286,35.12903976],[78.12531281,35.12599182],[78.12431335,35.12189102],[78.11709595,35.11164093],[78.11102295,35.10734177],[78.09771729,35.09793091],[78.08894348,35.09582901],[78.08831787,35.09568024],[78.08428192,35.09077072],[78.08287048,35.08248901],[78.09494781,35.05690002],[78.11483002,35.01475906],[78.1182785,35.00664902],[78.12110901,35],[78.13031006,34.97834015],[78.13347626,34.97087097],[78.16731262,34.91213989],[78.17359924,34.90629959],[78.17515564,34.90280533],[78.18464661,34.88151932],[78.18833923,34.86278152],[78.20732117,34.76610947],[78.21039581,34.75893402],[78.21868896,34.73955917],[78.22104645,34.73403168],[78.23156738,34.71680069],[78.23176575,34.71653748],[78.24803162,34.69509888],[78.26570129,34.67938995],[78.27259827,34.67494583],[78.27404785,34.67401123],[78.28436279,34.66736221],[78.30033875,34.66193008],[78.30680084,34.660923],[78.31733704,34.65927887],[78.32353973,34.65658188],[78.32492065,34.65597916],[78.38717651,34.6516304],[78.39552307,34.64939117],[78.39836121,34.64863205],[78.39872742,34.64835358],[78.40458679,34.6439209],[78.40701294,34.63663101],[78.40689087,34.6210289],[78.40931702,34.61349869],[78.41812897,34.60540009],[78.42511749,34.60346222],[78.43546295,34.6028595],[78.44315338,34.60240173],[78.45915222,34.60278702],[78.48223114,34.60334015],[78.51154327,34.60911179],[78.537117,34.614151],[78.5581665,34.61474991],[78.56933594,34.61194992],[78.58207703,34.60314941],[78.61109161,34.58306122],[78.62100983,34.57427979],[78.63762665,34.5522995],[78.64382935,34.5478096],[78.65248871,34.5381546],[78.66005707,34.52972031],[78.68061829,34.51560211],[78.68618774,34.51276016],[78.69631958,34.50759125],[78.71663666,34.50100708],[78.73007965,34.4966507],[78.7361145,34.4916687],[78.73826599,34.48989105],[78.74935913,34.47698975],[78.75035095,34.47505188],[78.75283813,34.47016907],[78.75405121,34.46901321],[78.76302338,34.46046066],[78.78847504,34.44142151],[78.79937744,34.4332695],[78.82495117,34.41413116],[78.83725739,34.40701675],[78.83809662,34.40652847],[78.87568665,34.39465332],[78.89155579,34.38964081],[78.91503906,34.3788414],[78.92254639,34.3753891],[78.92743683,34.37163544],[78.92917633,34.37030029],[78.93989563,34.36207962],[78.96073914,34.34609985],[78.96884918,34.34162903],[78.97673798,34.33393097],[78.98146057,34.33285141],[78.98922729,34.31926727],[78.99005127,34.31782913],[78.99421692,34.30252075],[78.99340057,34.28874207],[78.98499298,34.26779175],[78.9750061,34.24285889],[78.95619965,34.21783066],[78.94211578,34.20479202],[78.93534088,34.19961166],[78.91036224,34.18050003],[78.89435577,34.17002106],[78.88887787,34.16643143],[78.87904358,34.16132736],[78.87114716,34.15723038],[78.85883331,34.15180206],[78.81531525,34.13261032],[78.77426147,34.11450958],[78.77094269,34.11373901],[78.76389313,34.11210632],[78.76066589,34.11135864],[78.75946045,34.11108017],[78.72923279,34.09569931],[78.7244339,34.09140396],[78.71331787,34.08145905],[78.70638275,34.0721817],[78.70614624,34.05863953],[78.71212006,34.05047989],[78.73184967,34.04253006],[78.75953674,34.03633881],[78.75987244,34.03626633],[78.76064301,34.03609848],[78.76595306,34.03250885],[78.76828766,34.02574921],[78.77036285,34.01972961],[78.76841736,34.01446915],[78.7636261,34.00151062],[78.74289703,33.9872818],[78.72841644,33.9773407],[78.71578979,33.96453094],[78.71425629,33.95946884],[78.71615601,33.94894028],[78.71724701,33.94895935],[78.71665955,33.93909073],[78.71492767,33.93344879],[78.71156311,33.92250061],[78.71724701,33.89048004],[78.72566986,33.87112045],[78.74178314,33.84017944],[78.76132202,33.81734085],[78.76203156,33.81650925],[78.77506256,33.80125046],[78.7805481,33.7891922],[78.78398895,33.77043152],[78.77529144,33.74640274],[78.77522278,33.74621964],[78.76239777,33.73065948],[78.75756073,33.7264595],[78.73731995,33.70888138],[78.73724365,33.70881653],[78.73175049,33.70404053],[78.70929718,33.67961121],[78.70842743,33.67610931],[78.70678711,33.66947937],[78.70935059,33.66054916],[78.71098328,33.65486908],[78.72727966,33.62277603],[78.72992706,33.61756897],[78.74223328,33.59741211],[78.74347687,33.59537506],[78.75811005,33.57139206],[78.76319885,33.56304932],[78.77068329,33.55204391],[78.78386688,33.53264999],[78.79115295,33.52518845],[78.80387115,33.50680923],[78.81859589,33.48907852],[78.82073212,33.48651505],[78.82325745,33.48348999],[78.87039948,33.43970108],[78.87152863,33.43907928],[78.87565613,33.43680191],[78.89539337,33.42031097],[78.92125702,33.39870071],[78.94110107,33.3900795],[78.9548111,33.37417984],[78.97268677,33.36732101],[78.97953033,33.35877609],[78.98866272,33.34737015],[78.998703,33.34022522],[79.00415039,33.33634949],[79.01954651,33.3307991],[79.03379822,33.31357956],[79.03656769,33.31208801],[79.0476532,33.30611038],[79.06659698,33.29589081],[79.07079315,33.29092026],[79.07311249,33.28359985],[79.06926727,33.27310944],[79.0661087,33.26448059],[79.06684875,33.25462341],[79.06720734,33.24983215],[79.07147217,33.23816299],[79.07496643,33.22861099],[79.09298706,33.22045898],[79.11328125,33.21128082],[79.12773132,33.20473862],[79.14144135,33.20009995],[79.15701294,33.19791031],[79.1647644,33.19681931],[79.18049622,33.1946106],[79.1829834,33.19292068],[79.18546295,33.19123077],[79.20622253,33.19395065],[79.21237183,33.19475937],[79.31517029,33.18880081],[79.35584259,33.18952942],[79.3772583,33.18991089],[79.39362335,33.18893051],[79.399086,33.18714905],[79.40197754,33.18489456],[79.40983582,33.17877197],[79.41683197,33.16669083],[79.4175415,33.15523911],[79.41546631,33.1476593],[79.41320038,33.14191437],[79.41075134,33.13570023],[79.39853668,33.11471176],[79.39726257,33.10943222],[79.39502716,33.10720062],[79.39328003,33.10544586],[79.39055634,33.10271072],[79.37358856,33.07342911],[79.37328339,33.0719986],[79.37230682,33.06745911],[79.36760712,33.06161118],[79.36618042,33.05984116],[79.35492706,33.03060913],[79.35301971,33.02259064],[79.35186768,33.01774216],[79.35002899,32.99618149],[79.3507309,32.99126053],[79.3509903,32.98942184],[79.35121918,32.98781586],[79.3524704,32.97903061],[79.36211395,32.96205902],[79.36503601,32.95692062],[79.38111115,32.93956757],[79.38313293,32.93738937],[79.38712311,32.93307877],[79.39096069,32.930439],[79.39906311,32.92486954],[79.41867065,32.91139984],[79.43206024,32.90510941],[79.4348526,32.90032959],[79.44185638,32.89466095],[79.44621277,32.89113998],[79.44857788,32.88922882],[79.45439911,32.88035202],[79.45506287,32.87805939],[79.45697021,32.87142944],[79.46452332,32.81674194],[79.47122955,32.80282211],[79.47782135,32.79624176],[79.48442078,32.78966141],[79.49630737,32.78411102],[79.5152359,32.77528],[79.52672577,32.76758957],[79.52893066,32.76501465],[79.53334045,32.75986099],[79.54052734,32.74869156],[79.54402924,32.73950195],[79.54541016,32.73586655],[79.5473938,32.73065186],[79.55539703,32.7096405],[79.56124878,32.68402863],[79.56259155,32.67816925],[79.56429291,32.67076111],[79.55776978,32.63061905],[79.55355835,32.62026978],[79.54982758,32.61439133],[79.54535675,32.60736084],[79.52404785,32.59589005],[79.52200317,32.59479141],[79.51436615,32.59286499],[79.50878906,32.59146118],[79.48854065,32.59283066],[79.48497009,32.59307098],[79.47812653,32.59293365],[79.46414948,32.59265137],[79.44801331,32.58607864],[79.43630981,32.57990265],[79.43031311,32.57674026],[79.40381622,32.55768967],[79.36222076,32.53755951],[79.36148834,32.5370369],[79.35997009,32.53594971],[79.35324097,32.53112793],[79.34697723,32.52664185],[79.32025146,32.49129868],[79.31373596,32.48788834],[79.31221771,32.48709106],[79.30493164,32.48654938],[79.29734039,32.48852921],[79.27011871,32.5177803],[79.2607193,32.52227783],[79.25840759,32.52338028],[79.2579422,32.5233345],[79.2532196,32.52285767],[79.24816132,32.52235031],[79.23497772,32.51898956],[79.23309326,32.51850891],[79.22310638,32.51596069],[79.22088623,32.51539612],[79.21382904,32.5135994],[79.20693207,32.51184082],[79.20295715,32.51082993],[79.18330383,32.50102234],[79.16506958,32.49192047],[79.14885712,32.4838295],[79.1289444,32.46642685],[79.12652588,32.46430969],[79.12172699,32.45611191],[79.12024689,32.45357895],[79.12007904,32.45328903],[79.1181488,32.45000076],[79.11978149,32.43832016],[79.12187958,32.42324066],[79.12133789,32.41762161],[79.12119293,32.41613007],[79.11180115,32.39929199],[79.10912323,32.38322067],[79.1044693,32.37171173],[79.09564209,32.367939],[79.09185028,32.36903],[79.07662964,32.37901688],[79.06754303,32.38497925],[79.0642395,32.3852272],[79.05970001,32.38557053],[79.04921722,32.38336945],[79.04904938,32.383255],[79.04654694,32.38156891],[79.02498627,32.36701202],[78.99375916,32.36429977],[78.98252869,32.34582138],[78.97720337,32.34276962],[78.97373199,32.34360886],[78.97096252,32.34428024],[78.92399597,32.3633194],[78.91886139,32.36539841],[78.91467285,32.36709213],[78.91413879,32.36771011],[78.90232849,32.38139343],[78.90001678,32.38407135],[78.88800049,32.39237213],[78.88582611,32.39597702],[78.87457275,32.41461945],[78.8674469,32.41909027],[78.85692596,32.4189415],[78.83602142,32.42528152],[78.8212204,32.43627167],[78.81980896,32.43732071],[78.81790161,32.43873978],[78.81636047,32.44062042],[78.79792786,32.46318054],[78.79641724,32.46427536],[78.78118134,32.47529984],[78.77667236,32.48392868],[78.77542877,32.49055099],[78.77558136,32.51635361],[78.77559662,32.51966095],[78.7726059,32.54434967],[78.76792145,32.55327225],[78.76675415,32.5554924],[78.76555634,32.55776215],[78.76425171,32.56484222],[78.76371002,32.56781006],[78.76516724,32.57493973],[78.77649689,32.58818054],[78.78032684,32.59832001],[78.77929687,32.60224533],[78.77578735,32.61562729],[78.77056885,32.63552094],[78.76805878,32.66297913],[78.76521301,32.6736908],[78.76456451,32.67609406],[78.76391602,32.67848969],[78.76027679,32.68416977],[78.7459259,32.69607925],[78.74214172,32.69601822],[78.7364502,32.69593048],[78.71703339,32.68072891],[78.66426849,32.65649033],[78.65442657,32.64923096],[78.65162659,32.64442062],[78.63233948,32.6110611],[78.62567139,32.60705185],[78.60328674,32.60438156],[78.59976959,32.60525894],[78.5947113,32.60652161],[78.58695221,32.60845947],[78.55927277,32.61233902],[78.54985046,32.61231995],[78.54950714,32.61231995],[78.54519653,32.6123085],[78.5449295,32.6123085],[78.53894043,32.61042786],[78.53704834,32.60983276],[78.53675079,32.60974121],[78.53108215,32.60795975],[78.52641296,32.60649109],[78.50885773,32.59471893],[78.50328064,32.58956146],[78.49591064,32.58274841],[78.48561096,32.5732193],[78.47966003,32.57312012],[78.47274017,32.57786179],[78.47249603,32.57802963],[78.47151947,32.57823944],[78.47027588,32.57850266],[78.46161652,32.58034897],[78.45272064,32.57950211],[78.44332886,32.57207489],[78.4378891,32.56777191],[78.41223907,32.55606079],[78.41145325,32.55430984],[78.40432739,32.53873062],[78.40522766,32.52523041],[78.41125488,32.51982498],[78.41204834,32.51911545],[78.41652679,32.51509857],[78.41333771,32.51324081],[78.41075897,32.51174164]]]},"properties":{"GID_0":"IND","NAME_0":"India","GID_1":"IND.14_1","NAME_1":"Jammu and Kashmir","NL_NAME_1":"","GID_2":"IND.14.13_1","NAME_2":"Leh (Ladakh)","VARNAME_2":"","NL_NAME_2":"","TYPE_2":"District","ENGTYPE_2":"District","CC_2":"","HASC_2":"IN.JK.LE","district":"Leh (Ladakh)","dtname":"Leh (Ladakh)","st_nm":"Ladakh"}}]}